[
  {
    "OBJECT_NAME": "STARLINK-11172 [DTC]",
    "OBJECT_ID": "24124L",
    "EPOCH": "2025-11-11T04:56:30.458976",
    "MEAN_MOTION": 15.69726976,
    "ECCENTRICITY": 0.0001011,
    "INCLINATION": 53.1574,
    "RA_OF_ASC_NODE": 25.4255,
    "ARG_OF_PERICENTER": 87.7802,
    "MEAN_ANOMALY": 272.3332,
    "EPHEMERIS_TYPE": 0,
    "CLASSIFICATION_TYPE": "U",
    "NORAD_CAT_ID": 60193,
    "ELEMENT_SET_NO": 999,
    "REV_AT_EPOCH": 7792,
    "BSTAR": 0.00025757000000000004,
    "MEAN_MOTION_DOT": 0.00030753,
    "MEAN_MOTION_DDOT": 0.0,
    "TLE_LINE1": "1 60193U 24124L   25315.20590809  .00030753  00000+0  25757-3 0  9997",
    "TLE_LINE2": "2 60193  53.1574  25.4255 0001011  87.7802 272.3332 15.69726976 77929",
    "COMMENT": "Grouped by shell and plane from TLE"
  },
  {
    "OBJECT_NAME": "STARLINK-11152 [DTC]",
    "OBJECT_ID": "24124M",
    "EPOCH": "2025-11-11T04:49:26.502816",
    "MEAN_MOTION": 15.69737611,
    "ECCENTRICITY": 8.23e-05,
    "INCLINATION": 53.158,
    "RA_OF_ASC_NODE": 25.393,
    "ARG_OF_PERICENTER": 65.0409,
    "MEAN_ANOMALY": 295.0695,
    "EPHEMERIS_TYPE": 0,
    "CLASSIFICATION_TYPE": "U",
    "NORAD_CAT_ID": 60194,
    "ELEMENT_SET_NO": 999,
    "REV_AT_EPOCH": 7911,
    "BSTAR": 0.0001903,
    "MEAN_MOTION_DOT": 0.00022555,
    "MEAN_MOTION_DDOT": 0.0,
    "TLE_LINE1": "1 60194U 24124M   25315.20100119  .00022555  00000+0  19030-3 0  9997",
    "TLE_LINE2": "2 60194  53.1580  25.3930 0000823  65.0409 295.0695 15.69737611 79113",
    "COMMENT": "Grouped by shell and plane from TLE"
  },
  {
    "OBJECT_NAME": "STARLINK-11193 [DTC]",
    "OBJECT_ID": "24124N",
    "EPOCH": "2025-11-11T04:42:22.460256",
    "MEAN_MOTION": 15.69749937,
    "ECCENTRICITY": 0.0001698,
    "INCLINATION": 53.1564,
    "RA_OF_ASC_NODE": 25.3596,
    "ARG_OF_PERICENTER": 98.6829,
    "MEAN_ANOMALY": 261.4381,
    "EPHEMERIS_TYPE": 0,
    "CLASSIFICATION_TYPE": "U",
    "NORAD_CAT_ID": 60195,
    "ELEMENT_SET_NO": 999,
    "REV_AT_EPOCH": 7792,
    "BSTAR": 0.0002018,
    "MEAN_MOTION_DOT": 0.0002397,
    "MEAN_MOTION_DDOT": 0.0,
    "TLE_LINE1": "1 60195U 24124N   25315.19609329  .00023970  00000+0  20180-3 0  9993",
    "TLE_LINE2": "2 60195  53.1564  25.3596 0001698  98.6829 261.4381 15.69749937 77923",
    "COMMENT": "Grouped by shell and plane from TLE"
  },
  {
    "OBJECT_NAME": "STARLINK-11736 [DTC]",
    "OBJECT_ID": "25124A",
    "EPOCH": "2025-11-11T06:00:37.490688",
    "MEAN_MOTION": 15.70868258,
    "ECCENTRICITY": 0.0005531,
    "INCLINATION": 42.9997,
    "RA_OF_ASC_NODE": 23.4278,
    "ARG_OF_PERICENTER": 297.9944,
    "MEAN_ANOMALY": 62.0364,
    "EPHEMERIS_TYPE": 0,
    "CLASSIFICATION_TYPE": "U",
    "NORAD_CAT_ID": 64317,
    "ELEMENT_SET_NO": 999,
    "REV_AT_EPOCH": 2420,
    "BSTAR": 0.0025156,
    "MEAN_MOTION_DOT": 0.00336275,
    "MEAN_MOTION_DDOT": 0.0,
    "TLE_LINE1": "1 64317U 25124A   25315.25043392  .00336275  00000+0  25156-2 0  9995",
    "TLE_LINE2": "2 64317  42.9997  23.4278 0005531 297.9944  62.0364 15.70868258 24206",
    "COMMENT": "Grouped by shell and plane from TLE"
  },
  {
    "OBJECT_NAME": "STARLINK-11673 [DTC]",
    "OBJECT_ID": "25124B",
    "EPOCH": "2025-11-11T05:30:02.198304",
    "MEAN_MOTION": 15.71100641,
    "ECCENTRICITY": 0.0001969,
    "INCLINATION": 42.9999,
    "RA_OF_ASC_NODE": 23.2568,
    "ARG_OF_PERICENTER": 236.8109,
    "MEAN_ANOMALY": 123.257,
    "EPHEMERIS_TYPE": 0,
    "CLASSIFICATION_TYPE": "U",
    "NORAD_CAT_ID": 64318,
    "ELEMENT_SET_NO": 999,
    "REV_AT_EPOCH": 2420,
    "BSTAR": 0.0032040999999999997,
    "MEAN_MOTION_DOT": 0.00437858,
    "MEAN_MOTION_DDOT": 0.0,
    "TLE_LINE1": "1 64318U 25124B   25315.22919211  .00437858  00000+0  32041-2 0  9995",
    "TLE_LINE2": "2 64318  42.9999  23.2568 0001969 236.8109 123.2570 15.71100641 24200",
    "COMMENT": "Grouped by shell and plane from TLE"
  },
  {
    "OBJECT_NAME": "STARLINK-11671 [DTC]",
    "OBJECT_ID": "25124C",
    "EPOCH": "2025-11-11T05:14:44.657088",
    "MEAN_MOTION": 15.71106709,
    "ECCENTRICITY": 0.0002434,
    "INCLINATION": 42.9979,
    "RA_OF_ASC_NODE": 23.1695,
    "ARG_OF_PERICENTER": 237.5904,
    "MEAN_ANOMALY": 122.4728,
    "EPHEMERIS_TYPE": 0,
    "CLASSIFICATION_TYPE": "U",
    "NORAD_CAT_ID": 64319,
    "ELEMENT_SET_NO": 999,
    "REV_AT_EPOCH": 2420,
    "BSTAR": 0.0022174,
    "MEAN_MOTION_DOT": 0.0029783,
    "MEAN_MOTION_DDOT": 0.0,
    "TLE_LINE1": "1 64319U 25124C   25315.21857242  .00297830  00000+0  22174-2 0  9990",
    "TLE_LINE2": "2 64319  42.9979  23.1695 0002434 237.5904 122.4728 15.71106709 24205",
    "COMMENT": "Grouped by shell and plane from TLE"
  },
  {
    "OBJECT_NAME": "STARLINK-11594 [DTC]",
    "OBJECT_ID": "25124D",
    "EPOCH": "2025-11-11T06:08:16.148544",
    "MEAN_MOTION": 15.70834428,
    "ECCENTRICITY": 0.0001749,
    "INCLINATION": 43.0003,
    "RA_OF_ASC_NODE": 23.4703,
    "ARG_OF_PERICENTER": 289.5288,
    "MEAN_ANOMALY": 70.539,
    "EPHEMERIS_TYPE": 0,
    "CLASSIFICATION_TYPE": "U",
    "NORAD_CAT_ID": 64320,
    "ELEMENT_SET_NO": 999,
    "REV_AT_EPOCH": 2420,
    "BSTAR": 0.0021820999999999998,
    "MEAN_MOTION_DOT": 0.00289448,
    "MEAN_MOTION_DDOT": 0.0,
    "TLE_LINE1": "1 64320U 25124D   25315.25574246  .00289448  00000+0  21821-2 0  9990",
    "TLE_LINE2": "2 64320  43.0003  23.4703 0001749 289.5288  70.5390 15.70834428 24203",
    "COMMENT": "Grouped by shell and plane from TLE"
  },
  {
    "OBJECT_NAME": "STARLINK-11596 [DTC]",
    "OBJECT_ID": "25124E",
    "EPOCH": "2025-11-11T08:00:03.000384",
    "MEAN_MOTION": 15.7080351,
    "ECCENTRICITY": 0.0001474,
    "INCLINATION": 43.0001,
    "RA_OF_ASC_NODE": 22.8541,
    "ARG_OF_PERICENTER": 266.9352,
    "MEAN_ANOMALY": 232.7662,
    "EPHEMERIS_TYPE": 0,
    "CLASSIFICATION_TYPE": "U",
    "NORAD_CAT_ID": 64321,
    "ELEMENT_SET_NO": 999,
    "REV_AT_EPOCH": 595,
    "BSTAR": 0.00021857,
    "MEAN_MOTION_DOT": 0.00027648,
    "MEAN_MOTION_DDOT": 0.0,
    "TLE_LINE1": "1 64321U 25124E   25315.33336806  .00027648  00000+0  21857-3 0  9990",
    "TLE_LINE2": "2 64321  43.0001  22.8541 0001474 266.9352 232.7662 15.70803510  5954",
    "COMMENT": "Grouped by shell and plane from TLE"
  },
  {
    "OBJECT_NAME": "STARLINK-11747 [DTC]",
    "OBJECT_ID": "25124F",
    "EPOCH": "2025-11-11T05:37:40.948608",
    "MEAN_MOTION": 15.71104061,
    "ECCENTRICITY": 0.0002271,
    "INCLINATION": 42.9994,
    "RA_OF_ASC_NODE": 23.2976,
    "ARG_OF_PERICENTER": 224.0246,
    "MEAN_ANOMALY": 136.0441,
    "EPHEMERIS_TYPE": 0,
    "CLASSIFICATION_TYPE": "U",
    "NORAD_CAT_ID": 64322,
    "ELEMENT_SET_NO": 999,
    "REV_AT_EPOCH": 2420,
    "BSTAR": 0.0032659,
    "MEAN_MOTION_DOT": 0.00446856,
    "MEAN_MOTION_DDOT": 0.0,
    "TLE_LINE1": "1 64322U 25124F   25315.23450172  .00446856  00000+0  32659-2 0  9990",
    "TLE_LINE2": "2 64322  42.9994  23.2976 0002271 224.0246 136.0441 15.71104061 24200",
    "COMMENT": "Grouped by shell and plane from TLE"
  },
  {
    "OBJECT_NAME": "STARLINK-11728 [DTC]",
    "OBJECT_ID": "25124G",
    "EPOCH": "2025-11-11T04:51:48.763872",
    "MEAN_MOTION": 15.71043325,
    "ECCENTRICITY": 0.0001582,
    "INCLINATION": 42.9991,
    "RA_OF_ASC_NODE": 23.0411,
    "ARG_OF_PERICENTER": 273.5085,
    "MEAN_ANOMALY": 86.5602,
    "EPHEMERIS_TYPE": 0,
    "CLASSIFICATION_TYPE": "U",
    "NORAD_CAT_ID": 64323,
    "ELEMENT_SET_NO": 999,
    "REV_AT_EPOCH": 2420,
    "BSTAR": 0.0030273,
    "MEAN_MOTION_DOT": 0.00411351,
    "MEAN_MOTION_DDOT": 0.0,
    "TLE_LINE1": "1 64323U 25124G   25315.20264773  .00411351  00000+0  30273-2 0  9990",
    "TLE_LINE2": "2 64323  42.9991  23.0411 0001582 273.5085  86.5602 15.71043325 24207",
    "COMMENT": "Grouped by shell and plane from TLE"
  },
  {
    "OBJECT_NAME": "STARLINK-11696 [DTC]",
    "OBJECT_ID": "25124H",
    "EPOCH": "2025-11-11T05:07:06.042432",
    "MEAN_MOTION": 15.71044278,
    "ECCENTRICITY": 0.0001653,
    "INCLINATION": 42.9995,
    "RA_OF_ASC_NODE": 23.1249,
    "ARG_OF_PERICENTER": 218.2963,
    "MEAN_ANOMALY": 141.7787,
    "EPHEMERIS_TYPE": 0,
    "CLASSIFICATION_TYPE": "U",
    "NORAD_CAT_ID": 64324,
    "ELEMENT_SET_NO": 999,
    "REV_AT_EPOCH": 2420,
    "BSTAR": 0.0024497,
    "MEAN_MOTION_DOT": 0.00329479,
    "MEAN_MOTION_DDOT": 0.0,
    "TLE_LINE1": "1 64324U 25124H   25315.21326438  .00329479  00000+0  24497-2 0  9999",
    "TLE_LINE2": "2 64324  42.9995  23.1249 0001653 218.2963 141.7787 15.71044278 24208",
    "COMMENT": "Grouped by shell and plane from TLE"
  },
  {
    "OBJECT_NAME": "STARLINK-11698 [DTC]",
    "OBJECT_ID": "25124J",
    "EPOCH": "2025-11-11T05:16:03.341568",
    "MEAN_MOTION": 15.71082071,
    "ECCENTRICITY": 0.0001786,
    "INCLINATION": 42.9991,
    "RA_OF_ASC_NODE": 23.1757,
    "ARG_OF_PERICENTER": 236.7399,
    "MEAN_ANOMALY": 123.3298,
    "EPHEMERIS_TYPE": 0,
    "CLASSIFICATION_TYPE": "U",
    "NORAD_CAT_ID": 64325,
    "ELEMENT_SET_NO": 999,
    "REV_AT_EPOCH": 2420,
    "BSTAR": 0.0029172,
    "MEAN_MOTION_DOT": 0.00396289,
    "MEAN_MOTION_DDOT": 0.0,
    "TLE_LINE1": "1 64325U 25124J   25315.21948312  .00396289  00000+0  29172-2 0  9999",
    "TLE_LINE2": "2 64325  42.9991  23.1757 0001786 236.7399 123.3298 15.71082071 24200",
    "COMMENT": "Grouped by shell and plane from TLE"
  },
  {
    "OBJECT_NAME": "STARLINK-11678 [DTC]",
    "OBJECT_ID": "25124K",
    "EPOCH": "2025-11-11T05:45:19.558080",
    "MEAN_MOTION": 15.70861227,
    "ECCENTRICITY": 0.0001177,
    "INCLINATION": 42.9988,
    "RA_OF_ASC_NODE": 23.3385,
    "ARG_OF_PERICENTER": 228.7907,
    "MEAN_ANOMALY": 131.2859,
    "EPHEMERIS_TYPE": 0,
    "CLASSIFICATION_TYPE": "U",
    "NORAD_CAT_ID": 64326,
    "ELEMENT_SET_NO": 999,
    "REV_AT_EPOCH": 2420,
    "BSTAR": 0.0014389,
    "MEAN_MOTION_DOT": 0.00188595,
    "MEAN_MOTION_DDOT": 0.0,
    "TLE_LINE1": "1 64326U 25124K   25315.23980970  .00188595  00000+0  14389-2 0  9991",
    "TLE_LINE2": "2 64326  42.9988  23.3385 0001177 228.7907 131.2859 15.70861227 24204",
    "COMMENT": "Grouped by shell and plane from TLE"
  }
]